     3.04           N: GNSS NAV DATA    G: GPS              RINEX VERSION / TYPE
JPS2RIN v.2.1.223   JAVAD GNSS          20240324 001746 UTC PGM / RUN BY / DATE
    18                                                      LEAP SECONDS
GODS                                    MARKER NAME         COMMENT
40451M128                               MARKER NUMBER       COMMENT
  1130752.1541 -4831349.1034  3994098.9626                  COMMENT
This data is provided as a public service by NASA/JPL.      COMMENT
No warranty is expressed or implied regarding suitability   COMMENT
for use.  For further information, contact:                 COMMENT
ggnops at jpl dot nasa dot gov                              COMMENT
                                                            END OF HEADER
G10 2024 03 23 07 59 44-2.011191099882D-06-2.614797267597D-12 0.000000000000D+00
     4.000000000000D+00 4.490625000000D+01 4.402683389435D-09-1.039258424005D+00
     2.525746822357D-06 9.294164599851D-03 3.311783075333D-06 5.153683702469D+03
     5.471840000000D+05 1.564621925354D-07-1.964601285324D+00 9.685754776001D-08
     9.828487490583D-01 3.255312500000D+02-2.367109441941D+00-8.228557038144D-09
     3.357282701443D-10 1.000000000000D+00 2.306000000000D+03 0.000000000000D+00
     2.000000000000D+00 0.000000000000D+00 2.328306000000D-09 4.000000000000D+00
     5.408700000000D+05 4.000000000000D+00
G21 2024 03 23 07 59 44 1.302524469793D-04-1.477928890381D-12 0.000000000000D+00
     4.900000000000D+01 5.768750000000D+01 3.990523364173D-09-3.119391913526D+00
     3.056600689888D-06 2.528891956899D-02 1.280196011066D-05 5.153718389511D+03
     5.471840000000D+05-1.583248376846D-07-3.101961894147D+00 3.390014171600D-07
     9.621055172023D-01 1.250625000000D+02-6.025962475239D-01-7.436024025962D-09
     1.303625729816D-10 1.000000000000D+00 2.306000000000D+03 0.000000000000D+00
     2.000000000000D+00 0.000000000000D+00-1.024455000000D-08 4.900000000000D+01
     5.400600000000D+05 4.000000000000D+00
G25 2024 03 23 07 59 44 4.920167848468D-04 9.094947017729D-13 0.000000000000D+00
     3.000000000000D+00 4.062500000000D+01 5.210574184187D-09-3.819748681350D-01
     2.223998308182D-06 1.181618915871D-02 4.595145583153D-06 5.153590253830D+03
     5.471840000000D+05-2.793967723846D-08 1.160098949338D+00 1.527369022369D-07
     9.506473737304D-01 2.859062500000D+02 1.083947879557D+00-8.695005039004D-09
     2.160804291886D-10 1.000000000000D+00 2.306000000000D+03 0.000000000000D+00
     2.000000000000D+00 0.000000000000D+00 5.587935000000D-09 3.000000000000D+00
     5.403000000000D+05 4.000000000000D+00
G01 2024 03 23 08 00 00 1.754947006702D-04 2.160049916711D-12 0.000000000000D+00
     4.500000000000D+01 5.150000000000D+01 3.563719871809D-09 8.450765312982D-01
     2.719461917877D-06 1.293370814528D-02 1.222081482410D-05 5.154014673233D+03
     5.472000000000D+05-1.229345798492D-07-2.989961809099D+00 5.960464477539D-08
     9.909861021375D-01 1.604375000000D+02 1.002867849631D+00-7.749608516587D-09
     9.821837690392D-11 1.000000000000D+00 2.306000000000D+03 0.000000000000D+00
     2.000000000000D+00 6.300000000000D+01 5.122274000000D-09 4.500000000000D+01
     5.450700000000D+05 4.000000000000D+00
G02 2024 03 23 08 00 00-4.657157696784D-04 6.252776074689D-12 0.000000000000D+00
     7.700000000000D+01 5.125000000000D+01 3.937306861778D-09-2.740044814916D+00
     2.626329660416D-06 1.608828268945D-02 1.218169927597D-05 5.153716085434D+03
     5.472000000000D+05 1.210719347000D-07-3.095162660531D+00 1.881271600723D-07
     9.678358360759D-01 1.403125000000D+02-1.215667815044D+00-7.487454739687D-09
     1.764359206929D-10 1.000000000000D+00 2.306000000000D+03 0.000000000000D+00
     2.000000000000D+00 0.000000000000D+00-1.769513000000D-08 7.700000000000D+01
     5.414400000000D+05 4.000000000000D+00
G10 2024 03 23 08 00 00-2.012122422457D-06-2.614797267597D-12 0.000000000000D+00
     8.000000000000D+01 4.490625000000D+01 4.403040547169D-09-1.036925120871D+00
     2.525746822357D-06 9.294163784944D-03 3.311783075333D-06 5.153683696747D+03
     5.472000000000D+05 1.564621925354D-07-1.964601427227D+00 9.685754776001D-08
     9.828487505212D-01 3.255312500000D+02-2.367108953326D+00-8.228557038144D-09
     3.357282701443D-10 1.000000000000D+00 2.306000000000D+03 0.000000000000D+00
     2.000000000000D+00 0.000000000000D+00 2.328306000000D-09 8.000000000000D+01
     5.400600000000D+05 4.000000000000D+00
G12 2024 03 23 08 00 00-4.897769540548D-04-3.524291969370D-12 0.000000000000D+00
     3.200000000000D+01 3.318750000000D+01 4.885560646068D-09-3.049013495079D-01
     1.695007085800D-06 8.954613935202D-03 4.459172487259D-06 5.153678064346D+03
     5.472000000000D+05-9.126961231232D-08 1.245962412707D+00 1.005828380585D-07
     9.626795209062D-01 2.960312500000D+02 1.428624499945D+00-8.479638925283D-09
     1.785788670980D-10 1.000000000000D+00 2.306000000000D+03 0.000000000000D+00
     2.000000000000D+00 0.000000000000D+00-1.257285000000D-08 3.200000000000D+01
     5.400600000000D+05 4.000000000000D+00
G15 2024 03 23 08 00 00 1.405975781381D-04 3.979039320257D-12 0.000000000000D+00
     7.700000000000D+01-8.587500000000D+01 5.304506668280D-09 2.304185882865D+00
    -4.675239324570D-06 1.548255619127D-02 4.615634679794D-06 5.153627067566D+03
     5.472000000000D+05 1.080334186554D-07-1.067651244257D+00-2.272427082062D-07
     9.345786873994D-01 2.753437500000D+02 1.296702804648D+00-8.331061307858D-09
    -3.600149960697D-10 1.000000000000D+00 2.306000000000D+03 0.000000000000D+00
     2.000000000000D+00 0.000000000000D+00-1.024455000000D-08 7.700000000000D+01
     5.400600000000D+05 4.000000000000D+00
G18 2024 03 23 08 00 00-5.809161812067D-04-7.275957614183D-12 0.000000000000D+00
     6.000000000000D+01 5.243750000000D+01 3.923020552410D-09 1.255605466905D+00
     2.732500433922D-06 3.901224699803D-03 1.120381057262D-05 5.153621629715D+03
     5.472000000000D+05-3.911554813385D-08-2.993382139364D+00 8.754432201386D-08
     9.748779901642D-01 1.715000000000D+02-3.034786132532D+00-7.708535377154D-09
     1.478633019572D-10 1.000000000000D+00 2.306000000000D+03 0.000000000000D+00
     2.000000000000D+00 0.000000000000D+00-8.381903000000D-09 8.280000000000D+02
     5.400600000000D+05 4.000000000000D+00
G23 2024 03 23 08 00 00 1.835185103118D-04 8.753886504564D-12 0.000000000000D+00
     9.300000000000D+01 4.696875000000D+01 4.531260173746D-09 1.105918742526D-01
     2.486631274223D-06 4.013776080683D-03 3.643333911896D-06 5.153704784393D+03
     5.472000000000D+05 6.146728992462D-08-1.993278302282D+00-3.725290298462D-09
     9.780089157341D-01 3.187187500000D+02-2.956480086405D+00-8.274630385855D-09
     3.228705917133D-10 1.000000000000D+00 2.306000000000D+03 0.000000000000D+00
     2.000000000000D+00 0.000000000000D+00-8.381903000000D-09 9.300000000000D+01
     5.400600000000D+05 4.000000000000D+00
G24 2024 03 23 08 00 00-4.500923678279D-04-5.115907697473D-12 0.000000000000D+00
     9.000000000000D+01-8.781250000000D+00 4.940920094869D-09 1.450876404106D+00
    -4.302710294724D-07 1.515483064577D-02 1.201778650284D-05 5.153732416153D+03
     5.472000000000D+05-3.986060619354D-07 3.476497687797D-02-1.676380634308D-08
     9.345003057116D-01 1.380625000000D+02 9.711222727635D-01-8.288559537489D-09
     4.607334771129D-11 1.000000000000D+00 2.306000000000D+03 0.000000000000D+00
     2.000000000000D+00 0.000000000000D+00 2.328306000000D-09 9.000000000000D+01
     5.400600000000D+05 4.000000000000D+00
G26 2024 03 23 08 00 00 1.761359162629D-04-4.661160346586D-12 0.000000000000D+00
     9.800000000000D+01 4.846875000000D+01 5.459513124921D-09-1.184348993324D+00
     2.549961209297D-06 8.838954381645D-03 4.580244421959D-06 5.153602931976D+03
     5.472000000000D+05 2.365559339523D-07 1.098795119993D+00-8.754432201386D-08
     9.314723549453D-01 2.749375000000D+02 5.386836548850D-01-8.620359072557D-09
     2.603679882289D-10 1.000000000000D+00 2.306000000000D+03 0.000000000000D+00
     2.000000000000D+00 0.000000000000D+00 6.984919000000D-09 9.800000000000D+01
     5.470800000000D+05 4.000000000000D+00
G28 2024 03 23 08 00 00-1.748278737068D-04-1.421085471520D-11 0.000000000000D+00
     1.060000000000D+02 5.312500000000D+00 4.245891144123D-09-1.051716413467D+00
     3.054738044739D-07 5.309799453244D-04 1.217238605022D-05 5.153626050949D+03
     5.472000000000D+05-2.235174179077D-08 9.679570680972D-02 5.587935447693D-09
     9.619519576174D-01 1.417812500000D+02 1.744940146344D+00-7.856041521377D-09
     1.417916204758D-10 1.000000000000D+00 2.306000000000D+03 0.000000000000D+00
     2.000000000000D+00 0.000000000000D+00-9.313226000000D-09 8.740000000000D+02
     5.400600000000D+05 4.000000000000D+00
G31 2024 03 23 08 00 00-2.280091866851D-04 0.000000000000D+00 0.000000000000D+00
     4.700000000000D+01 1.421875000000D+01 4.493401453921D-09-4.423997704462D-01
     7.916241884232D-07 1.052925887052D-02 1.189857721329D-05 5.153703056335D+03
     5.472000000000D+05 5.587935447693D-08 1.518365644195D-01 1.769512891769D-07
     9.548328686673D-01 1.469687500000D+02 6.649916229532D-01-8.106409093049D-09
     1.810789712374D-10 1.000000000000D+00 2.306000000000D+03 0.000000000000D+00
     2.000000000000D+00 0.000000000000D+00-1.303852000000D-08 4.700000000000D+01
     5.422800000000D+05 4.000000000000D+00
G32 2024 03 23 08 00 00-6.166356615722D-04-1.023181539495D-12 0.000000000000D+00
     4.000000000000D+01-9.940625000000D+01 4.655551065246D-09-2.285232929193D+00
    -5.051493644714D-06 7.679997826926D-03 6.692484021187D-06 5.153654785156D+03
     5.472000000000D+05 1.490116119385D-07-9.270203192601D-01 3.539025783539D-08
     9.613709992010D-01 2.481875000000D+02-2.152396749176D+00-8.152125283026D-09
    -3.328710082708D-10 1.000000000000D+00 2.306000000000D+03 0.000000000000D+00
     2.000000000000D+00 0.000000000000D+00 9.313226000000D-10 4.000000000000D+01
     5.400600000000D+05 4.000000000000D+00
